stk.v.4.3 

BEGIN Ephemeris 

NumberOfEpemerisPoints 7200
ScenarioEpoch 	2020-10-09 16:00:00
Central Body Earth
CoordinateSystem Inertial
EphemerisTimePosVel
15 -2.59246651730877e+04 1.63223389179431e+03 5.42736694199594e+03 2.56583900166011e+00 2.27293997728811e+00 
15 1.38306111670112e+04 6.49247337037312e+03 -2.17177556427143e+04 -2.86068258668830e+00 1.74679736961782e+00 
15 1.48500655749421e+04 -1.25298996583870e+04 -1.79412452593075e+04 -3.24358694419508e+00 -1.78778571845289e+00 
15 -2.38902753557594e+04 1.20118258599702e+04 -3.07294915876693e+02 -3.54957528439979e+00 4.62111473451156e-01 
15 1.53733933156266e+04 1.65435666072093e+04 -1.40994608899075e+04 2.01284253083448e+00 -1.58720826316893e+00 
15 1.59533666535419e+04 2.01621267146206e+04 6.38309092833332e+03 1.07836407732379e+00 2.98958484782811e+00 
15 3.66404407405535e+03 -1.90034057307897e+04 1.81897475633173e+04 -2.60385769520149e+00 -1.83607972653349e+00 
15 1.07642491997298e+04 -2.24120546226817e+04 9.05474030013666e+03 -2.77027986006166e+00 2.72844942359606e+00 
15 -1.33122630450994e+04 9.14032248187689e+03 2.08648341413824e+04 2.34732125300761e+00 -1.99769141891321e+00 
15 -4.41317475858208e+03 -1.47218398423103e+04 2.19562751165440e+04 -2.84843818363119e+00 2.13916418738352e+00 
15 1.36211843505838e+04 -2.18895334049546e+04 5.65509263479122e+03 3.45824195195310e-01 -2.84817450560550e+00 
15 1.60275121896262e+04 -1.08842887146161e+04 1.77155370350606e+04 -3.35776367453803e+00 1.59166565075146e+00 
15 -1.83237137784733e+03 2.16710934084349e+04 1.55945896393913e+04 2.20703722512915e+00 -3.74080282965925e-02 
15 1.47509179726276e+04 -3.80815582519037e+03 2.19940334425760e+04 -2.59670739376868e+00 -2.61458005721681e+00 
15 2.16654430824864e+04 -5.63146473185036e+03 -1.36791216066045e+04 -3.07605625415301e+00 -1.54857388472929e+00 
15 2.05096132888153e+03 1.46937363079799e+04 -2.19955862909849e+04 3.79862342954205e+00 7.22516045375428e-01 
15 -1.50194471812530e+04 -5.35633408483440e+03 -2.15117502163951e+04 -2.79719903953971e+00 -2.44270830683173e+00 
15 5.01589590126237e+01 2.36207060585489e+04 1.20977999210639e+04 2.51755918864625e+00 -2.74497054249972e+00 
15 1.75877075279199e+04 9.56006646574624e+03 1.78156811461742e+04 -1.80790726202631e+00 -4.70133065012505e-01 
15 -1.96709884182621e+04 1.14909347063083e+04 1.36012263418930e+04 7.68675652002387e-01 1.95372642356212e+00 
15 2.07390770387881e+04 -1.29023065226356e+04 1.01528765914531e+04 -2.33478509243824e+00 3.05381035197884e-01 
15 -2.56825088071221e+04 -5.17084474263048e+03 3.20344555973863e+03 -3.06468579413983e-01 -3.23424204630649e+00 
15 -7.87853845781984e+03 -1.50321237062251e+04 -2.05344738670814e+04 -2.71444197946208e+00 -2.70453510902764e+00 
15 6.17324077657715e+02 -2.01526247802780e+04 1.72496614831197e+04 1.10706874320911e+00 -3.12450945321177e+00 
15 2.13230252124314e+04 -7.24498223216028e+03 -1.40449457629384e+04 -2.68448730222243e+00 -2.09322614431773e+00 
15 -1.57998359863770e+04 7.12587736530719e+02 2.14249341551679e+04 1.80397710795529e+00 -3.16791574176823e+00 
15 1.64352053437071e+04 1.65818627735239e+04 1.29032072944000e+04 -1.92206544377569e+00 -3.12868951426345e+00 
15 -1.33004247066399e+04 -1.41976080078221e+04 1.79425610223981e+04 -3.02012366632855e+00 -2.18535725777959e+00 
15 1.74648942493940e+04 1.06987193090418e+04 -1.71410729284485e+04 -1.94154725138097e+00 7.19198438353573e-01 
15 -2.10550629454975e+04 -1.09913374226559e+04 -1.18234684062260e+04 -1.97845532313542e+00 2.83170593425457e+00 
15 -2.58766484191216e+04 1.76552253864420e+03 5.61138197887087e+03 2.54549294794042e+00 2.28843902541441e+00 
15 1.39526512068747e+04 6.29578701036862e+03 -2.16973360294745e+04 -2.86350446574062e+00 1.77517296886305e+00 
15 1.50410122682140e+04 -1.24573244717575e+04 -1.78324722036546e+04 -3.22881774560113e+00 -1.80592926568967e+00 
15 -2.38202522055753e+04 1.21366721131951e+04 -4.92500914760274e+02 -3.56159295667334e+00 5.36273368513801e-01 
15 1.54315875307935e+04 1.63666548790603e+04 -1.42394720744028e+04 1.97901793610727e+00 -1.52185996280858e+00 
15 1.58786532402427e+04 2.02835036978084e+04 6.20002719079508e+03 1.10781163280746e+00 3.00330966770162e+00 
15 3.82022989941413e+03 -1.88705884550995e+04 1.82994272662145e+04 -2.59611759108815e+00 -1.79889645753121e+00 
15 1.09215501504829e+04 -2.24104723908705e+04 8.88468381281343e+03 -2.75407203606363e+00 2.74672966612490e+00 
15 -1.32180840576894e+04 9.34851220364434e+03 2.08318718306886e+04 2.34086313088963e+00 -1.98090797341112e+00 
15 -4.64428551251197e+03 -1.47018093813240e+04 2.19219281224662e+04 -3.59799481457912e+00 -1.13573265839803e+00 
15 1.34821126908577e+04 -2.19226441361655e+04 5.83667923023325e+03 3.14178212832282e-01 -2.83332531386472e+00 
15 1.62095123841260e+04 -1.07994363847053e+04 1.76039829061897e+04 -3.34275244748170e+00 1.61242910141394e+00 
15 -1.65874316920758e+03 2.15871655846849e+04 1.57274601797698e+04 2.32053901515060e+00 1.67244826631964e-01 
15 1.46580841663152e+04 -4.02181470787595e+03 2.20174199191574e+04 -2.56383947602488e+00 -1.88614557057782e+00 
15 2.15411544267829e+04 -5.76565062768780e+03 -1.38177731227033e+04 -3.06010759071246e+00 -1.56718430431863e+00 
15 1.81959753617062e+03 1.46957590878035e+04 -2.20148252633828e+04 3.80438435980677e+00 6.98343742621806e-01 
15 -1.51347948106922e+04 -5.15538223402760e+03 -2.14765130757589e+04 -2.77446878478008e+00 -2.50455532032043e+00 
15 -1.01030881040009e+02 2.35408976698416e+04 1.22550155088981e+04 2.51951955216714e+00 -2.72554377589718e+00 
15 1.75839332842150e+04 9.35436141438495e+03 1.79281568333040e+04 1.97205128689044e+00 7.37923753184369e-01 
15 -1.96710729246739e+04 1.16650432947745e+04 1.34475567102192e+04 8.03164461322627e-01 1.92191448385410e+00 
15 2.07159537928533e+04 -1.30629918678897e+04 9.98782681129896e+03 -2.35420000518591e+00 2.75195390349104e-01 
15 -2.56343344436515e+04 -5.29382311680486e+03 3.39293083112333e+03 -3.36372310233514e-01 -3.23368677894005e+00 
15 -8.03864152384963e+03 -1.48713941921519e+04 -2.05882297237187e+04 -2.67606409947542e+00 -2.75886808168001e+00 
15 4.44268846704164e+02 -2.00539325787358e+04 1.73689707064612e+04 1.08236764714828e+00 -3.11710080749647e+00 
15 2.14585082834794e+04 -7.12352404224176e+03 -1.39005811755485e+04 -2.65848889945451e+00 -2.11523261962309e+00 
15 -1.57342744773165e+04 9.32730365083704e+02 2.14642296172886e+04 1.96188263943984e+00 -3.19273426977108e+00 
15 1.63830701528635e+04 1.67511049439751e+04 1.27511131736880e+04 -2.10763394147260e+00 -3.15549003100309e+00 
15 -1.31017603952619e+04 -1.42463670935050e+04 1.80511645012132e+04 -3.03990704209368e+00 -2.16580113320745e+00 
15 1.74600462558686e+04 1.08987876946670e+04 -1.70203493933466e+04 -1.58470360843308e+00 9.82835474907131e-02 
15 -2.09156671897227e+04 -1.10870953729236e+04 -1.19825534197262e+04 -2.01447096096420e+00 2.81580652302581e+00 
15 -2.58266517925219e+04 1.89867549803487e+03 5.79496681823672e+03 2.52504726191405e+00 2.30380654670426e+00 
15 1.40736211250953e+04 6.09862175482202e+03 -2.16752556181230e+04 -2.86598448610029e+00 1.80316463176951e+00 
15 1.52308129553575e+04 -1.23837990786449e+04 -1.77223389193765e+04 -3.21389297798688e+00 -1.82399273725369e+00 
15 -2.37484088072214e+04 1.22605517457458e+04 -6.77623715356306e+02 -3.57133000665233e+00 6.09103549530806e-01 
15 1.54885920426802e+04 1.61885020466504e+04 -1.43783779792353e+04 1.94451012495870e+00 -1.45652497032957e+00 
15 1.58027005175459e+04 2.04033682613718e+04 6.01642937974556e+03 1.13731668045802e+00 3.01668637566309e+00 
15 3.97615403082902e+03 -1.87362982789276e+04 1.84077261760974e+04 -2.58779788853808e+00 -1.76103071615961e+00 
15 1.10780831065164e+04 -2.24071787668099e+04 8.71387805788108e+03 -2.73735779161281e+00 2.76475635350711e+00 
15 -1.31229029563306e+04 9.55598371870965e+03 2.07973262005360e+04 2.33429931934776e+00 -1.96404905266164e+00 
15 -4.87503629740846e+03 -1.46806431618187e+04 2.18858876165539e+04 5.98055938946072e-01 3.19482580419447e+00 
15 1.33420610905611e+04 -2.19540737307924e+04 6.01775979421206e+03 2.82694233449737e-01 -2.81826100454171e+00 
15 1.63903096820263e+04 -1.07137554389172e+04 1.74910815957036e+04 -3.32752120395998e+00 1.63315705117838e+00 
15 -1.48500483527820e+03 2.15015806997121e+04 1.58591034945132e+04 2.42179581161471e+00 3.66008445732652e-01 
15 1.45641232158855e+04 -4.23515506647960e+03 2.20391070422537e+04 -2.29005292305971e+00 -1.02059141593724e+00 
15 2.14152422515112e+04 -5.89939499404765e+03 -1.39553741113300e+04 -3.04402794752505e+00 -1.58570607172379e+00 
15 1.58809102654587e+03 1.46966578047329e+04 -2.20323805929278e+04 3.80993792550569e+00 6.74057344104229e-01 
15 -1.52489501310926e+04 -4.95407307477751e+03 -2.14396244594917e+04 -2.74926965296670e+00 -2.56281073433870e+00 
15 -2.52228583012826e+02 2.34592793917383e+04 1.24113093981111e+04 2.52112069100537e+00 -2.70556334529139e+00 
15 1.75788007189068e+04 9.14793478663623e+03 1.80392470211132e+04 -6.27118611760570e-01 -2.50478277705345e+00 
15 -1.96696522410620e+04 1.18382291610455e+04 1.32928847160692e+04 8.37263997831863e-01 1.89005453148359e+00 
15 2.06912539431387e+04 -1.32226550675402e+04 9.82204146592584e+03 -2.37328749736110e+00 2.45151608407904e-01 
15 -2.55842044705300e+04 -5.41641027571375e+03 3.58217588992256e+03 -3.66352023407362e-01 -3.23293415365258e+00 
15 -8.19811641165236e+03 -1.47095329040328e+04 -2.06404003817104e+04 -2.63488969771705e+00 -2.80863423785814e+00 
15 2.71184901796418e+02 -1.99537089882235e+04 1.74869473273788e+04 1.05770071236202e+00 -3.10946574149795e+00 
15 2.15923523222050e+04 -7.00151779418877e+03 -1.37551493281670e+04 -2.63211889385966e+00 -2.13716920192973e+00 
15 -1.56675068105301e+04 1.15279521974680e+03 2.15018760704640e+04 2.09886798648772e+00 -3.19055641449870e+00 
15 1.63296727877955e+04 1.69190653073357e+04 1.25980323196829e+04 -2.26816804136486e+00 -3.13571416795452e+00 
15 -1.29020816621064e+04 -1.42940426081712e+04 1.81583984617645e+04 -3.05955981047365e+00 -2.14601661399865e+00 
END Ephemeris